{
  "norad_id": 55844,
  "name": "HORUS 2",
  "history": [
    {
      "epoch": "2026-04-17T22:56:25.218816Z",
      "apogee_km": 496.37050489031844,
      "perigee_km": 494.5704445648362,
      "latitude_deg": -5.892461266667731e-05,
      "longitude_deg": -5.629339143894312,
      "height_km": 499.3020478725754,
      "semi_major_axis_km": 6873.607474727577,
      "eccentricity": 0.00013094,
      "inclination_deg": 97.3554,
      "raan_deg": 184.5575,
      "arg_perigee_deg": 144.8736,
      "mean_anomaly_deg": 215.2587,
      "mean_motion_rev_day": 15.23441109
    },
    {
      "epoch": "2026-04-18T19:26:00.297888Z",
      "apogee_km": 496.4069534596647,
      "perigee_km": 494.4905977454273,
      "latitude_deg": -4.112020205536509e-06,
      "longitude_deg": 46.96977027589127,
      "height_km": 499.3241983732471,
      "semi_major_axis_km": 6873.585775602546,
      "eccentricity": 0.0001394,
      "inclination_deg": 97.3552,
      "raan_deg": 185.3944,
      "arg_perigee_deg": 144.4974,
      "mean_anomaly_deg": 215.6356,
      "mean_motion_rev_day": 15.23448323
    },
    {
      "epoch": "2026-04-19T20:39:19.828224Z",
      "apogee_km": 496.42551617664503,
      "perigee_km": 494.41156440333907,
      "latitude_deg": 4.1470670898734694e-05,
      "longitude_deg": 28.632852439003823,
      "height_km": 499.33018795744067,
      "semi_major_axis_km": 6873.555540289992,
      "eccentricity": 0.0001465,
      "inclination_deg": 97.3548,
      "raan_deg": 186.4247,
      "arg_perigee_deg": 144.1607,
      "mean_anomaly_deg": 215.9729,
      "mean_motion_rev_day": 15.23458375
    },
    {
      "epoch": "2026-04-20T13:59:44.199744Z",
      "apogee_km": 496.4471840014039,
      "perigee_km": 494.35487902461045,
      "latitude_deg": 1.211856903050606e-05,
      "longitude_deg": 128.52747400803082,
      "height_km": 499.33799039034267,
      "semi_major_axis_km": 6873.538031513007,
      "eccentricity": 0.0001522,
      "inclination_deg": 97.3548,
      "raan_deg": 187.133,
      "arg_perigee_deg": 143.5671,
      "mean_anomaly_deg": 216.567,
      "mean_motion_rev_day": 15.23464196
    },
    {
      "epoch": "2026-04-21T19:56:47.355360Z",
      "apogee_km": 496.48455857213776,
      "perigee_km": 494.2396737607969,
      "latitude_deg": 7.500069953621129e-05,
      "longitude_deg": 39.25767564604378,
      "height_km": 499.3430696701869,
      "semi_major_axis_km": 6873.499116166467,
      "eccentricity": 0.0001633,
      "inclination_deg": 97.3544,
      "raan_deg": 188.3564,
      "arg_perigee_deg": 142.109,
      "mean_anomaly_deg": 218.0263,
      "mean_motion_rev_day": 15.23477134
    },
    {
      "epoch": "2026-04-22T19:35:30.278688Z",
      "apogee_km": 496.5059533566937,
      "perigee_km": 494.16759757828004,
      "latitude_deg": -2.157893811563971e-06,
      "longitude_deg": 44.573659746081304,
      "height_km": 499.3452024362737,
      "semi_major_axis_km": 6873.473775467486,
      "eccentricity": 0.0001701,
      "inclination_deg": 97.3544,
      "raan_deg": 189.3223,
      "arg_perigee_deg": 141.3697,
      "mean_anomaly_deg": 218.7662,
      "mean_motion_rev_day": 15.23485559
    },
    {
      "epoch": "2026-04-23T14:30:28.219392Z",
      "apogee_km": 496.51291041958575,
      "perigee_km": 494.11256430230424,
      "latitude_deg": -3.939328339571813e-06,
      "longitude_deg": 120.82808245208055,
      "height_km": 499.34640444688773,
      "semi_major_axis_km": 6873.449737360945,
      "eccentricity": 0.00017461,
      "inclination_deg": 97.3544,
      "raan_deg": 190.095,
      "arg_perigee_deg": 141.4503,
      "mean_anomaly_deg": 218.6859,
      "mean_motion_rev_day": 15.23493551
    },
    {
      "epoch": "2026-04-24T20:27:29.296224Z",
      "apogee_km": 496.52511804522055,
      "perigee_km": 494.0259452487144,
      "latitude_deg": -3.27482560162182e-05,
      "longitude_deg": 31.56708280040102,
      "height_km": 499.3223097694782,
      "semi_major_axis_km": 6873.412531646967,
      "eccentricity": 0.0001818,
      "inclination_deg": 97.3547,
      "raan_deg": 191.3185,
      "arg_perigee_deg": 139.6178,
      "mean_anomaly_deg": 220.5194,
      "mean_motion_rev_day": 15.23505921
    },
    {
      "epoch": "2026-04-25T20:06:10.488960Z",
      "apogee_km": 496.53481175001343,
      "perigee_km": 493.9353024380189,
      "latitude_deg": 3.92217789568601e-05,
      "longitude_deg": 36.890180545276884,
      "height_km": 499.2998313351108,
      "semi_major_axis_km": 6873.372057094016,
      "eccentricity": 0.0001891,
      "inclination_deg": 97.3548,
      "raan_deg": 192.2843,
      "arg_perigee_deg": 138.2691,
      "mean_anomaly_deg": 221.8691,
      "mean_motion_rev_day": 15.23519378
    },
    {
      "epoch": "2026-04-26T22:54:00.243936Z",
      "apogee_km": 496.5400100025572,
      "perigee_km": 493.83618137641406,
      "latitude_deg": -5.863950113481022e-06,
      "longitude_deg": -5.072945562916024,
      "height_km": 499.2773166373965,
      "semi_major_axis_km": 6873.325095689485,
      "eccentricity": 0.00019669,
      "inclination_deg": 97.3549,
      "raan_deg": 193.379,
      "arg_perigee_deg": 137.3611,
      "mean_anomaly_deg": 222.7779,
      "mean_motion_rev_day": 15.23534992
    },
    {
      "epoch": "2026-04-27T14:39:46.649376Z",
      "apogee_km": 496.55794593115206,
      "perigee_km": 493.75913998605847,
      "latitude_deg": -5.262979151534629e-05,
      "longitude_deg": 118.48014606203891,
      "height_km": 499.27656180211295,
      "semi_major_axis_km": 6873.2955429586045,
      "eccentricity": 0.0002036,
      "inclination_deg": 97.355,
      "raan_deg": 194.0228,
      "arg_perigee_deg": 136.9957,
      "mean_anomaly_deg": 223.1439,
      "mean_motion_rev_day": 15.23544818
    },
    {
      "epoch": "2026-04-28T22:11:42.040032Z",
      "apogee_km": 496.9845424445466,
      "perigee_km": 495.135383461512,
      "latitude_deg": 3.2932545015329284e-05,
      "longitude_deg": 5.491666253622099,
      "height_km": 500.0794158440107,
      "semi_major_axis_km": 6874.1969629530295,
      "eccentricity": 0.0001345,
      "inclination_deg": 97.355,
      "raan_deg": 195.3101,
      "arg_perigee_deg": 176.8473,
      "mean_anomaly_deg": 183.2773,
      "mean_motion_rev_day": 15.23245152
    },
    {
      "epoch": "2026-04-29T20:16:02.205408Z",
      "apogee_km": 497.0079082932634,
      "perigee_km": 495.046021897625,
      "latitude_deg": -2.1487875002501488e-05,
      "longitude_deg": 34.402375264856644,
      "height_km": 500.09940870531466,
      "semi_major_axis_km": 6874.163965095444,
      "eccentricity": 0.0001427,
      "inclination_deg": 97.355,
      "raan_deg": 196.2113,
      "arg_perigee_deg": 174.3844,
      "mean_anomaly_deg": 185.7409,
      "mean_motion_rev_day": 15.2325612
    },
    {
      "epoch": "2026-04-30T15:11:10.453632Z",
      "apogee_km": 497.03836281538224,
      "perigee_km": 494.95921170516795,
      "latitude_deg": 5.8772444275660124e-05,
      "longitude_deg": 110.61342311555734,
      "height_km": 500.12431354731,
      "semi_major_axis_km": 6874.135787260275,
      "eccentricity": 0.00015123,
      "inclination_deg": 97.3549,
      "raan_deg": 196.9837,
      "arg_perigee_deg": 171.9804,
      "mean_anomaly_deg": 188.1458,
      "mean_motion_rev_day": 15.23265486
    }
  ]
}